{"type":"FeatureCollection","features":[{"type":"Feature","geometry":{"type":"MultiPolygon","coordinates":[[[[-115.1896315,36.0981776],[-115.1889823,36.0981776],[-115.1889809,36.0973987],[-115.1896229,36.0973976],[-115.1896315,36.0981776]]]]},"properties":{"name":"Garage V"}},{"type":"Feature","geometry":{"type":"MultiPolygon","coordinates":[[[[-115.1909611,36.09735],[-115.1901046,36.0973565],[-115.190103,36.0974048],[-115.1900708,36.0974048],[-115.1900652,36.0990609],[-115.1909219,36.0990623],[-115.1909219,36.0990031],[-115.1909475,36.0990045],[-115.1909611,36.09735]]]]},"properties":{"name":"Lot U"}},{"type":"Feature","geometry":{"type":"MultiPolygon","coordinates":[[[[-115.1896776,36.0999908],[-115.1891071,36.0999968],[-115.1891023,36.1007869],[-115.1887812,36.1007814],[-115.1887832,36.1000367],[-115.1887526,36.1000357],[-115.1887468,36.0991989],[-115.1880115,36.099207],[-115.1879731,36.0992316],[-115.1879314,36.0992704],[-115.1878961,36.0993106],[-115.1878256,36.0993378],[-115.1877327,36.0993417],[-115.1876285,36.0992989],[-115.187566,36.099229],[-115.1875452,36.0991694],[-115.1875692,36.0991189],[-115.1866522,36.0991087],[-115.1865966,36.0990859],[-115.1865307,36.099004],[-115.1865984,36.0989853],[-115.1865932,36.0981999],[-115.1887811,36.0981804],[-115.1887853,36.0974065],[-115.1888386,36.0974065],[-115.1888341,36.0973616],[-115.1889608,36.0973598],[-115.1889608,36.0981877],[-115.1896565,36.0981841],[-115.1896776,36.0999908]]]]},"properties":{"name":"Lots T&V"}},{"type":"Feature","geometry":{"type":"MultiPolygon","coordinates":[[[[-115.1834561,36.0945321],[-115.1814926,36.0945195],[-115.1814926,36.0937671],[-115.1815393,36.0937199],[-115.1819484,36.0937104],[-115.1824198,36.0937104],[-115.1824198,36.0936097],[-115.1831055,36.093616],[-115.1832496,36.0936411],[-115.1833314,36.0936821],[-115.1834405,36.093723],[-115.1834561,36.0945321]]]]},"properties":{"name":"Lot N/Rideshare Drop-Off"}},{"type":"Feature","geometry":{"type":"MultiPolygon","coordinates":[[[[-115.1853698,36.0932412],[-115.1840999,36.0934278],[-115.1837286,36.0934076],[-115.1836693,36.0933017],[-115.183688,36.0931202],[-115.1837473,36.0929185],[-115.1839033,36.0928479],[-115.1840687,36.092805],[-115.1847676,36.092684],[-115.184883,36.0926487],[-115.1849267,36.0925832],[-115.184908,36.0925226],[-115.1850203,36.0924873],[-115.1850702,36.0925151],[-115.1851607,36.0925226],[-115.1852824,36.0925302],[-115.1853479,36.0925252],[-115.1853698,36.0932412]]]]},"properties":{"name":"Lot B"}},{"type":"Feature","geometry":{"type":"MultiPolygon","coordinates":[[[[-115.1832277,36.0933469],[-115.1816582,36.0933386],[-115.1816634,36.0931441],[-115.1815405,36.09314],[-115.1815405,36.0928255],[-115.1831279,36.0928152],[-115.1831304,36.0929062],[-115.1832277,36.0929062],[-115.1832277,36.0933469]]]]},"properties":{"name":"Lot C"}},{"type":"Feature","geometry":{"type":"MultiPolygon","coordinates":[[[[-115.1866479,36.0908423],[-115.1866524,36.0899866],[-115.1856937,36.0899682],[-115.1857005,36.0906307],[-115.1859396,36.0906307],[-115.1859442,36.0908405],[-115.1866479,36.0908423]]]]},"properties":{"name":"Lot W"}},{"type":"Feature","geometry":{"type":"MultiPolygon","coordinates":[[[[-115.1866163,36.0890095],[-115.1857063,36.0889957],[-115.1857149,36.088173],[-115.1866106,36.0881891],[-115.1866163,36.0890095]]]]},"properties":{"name":"Lot 5"}},{"type":"Feature","geometry":{"type":"MultiPolygon","coordinates":[[[[-115.186971,36.0890133],[-115.1869617,36.0882043],[-115.1866607,36.0882005],[-115.186663,36.0890076],[-115.186971,36.0890133]]]]},"properties":{"name":"Lot 5 (A)"}},{"type":"Feature","geometry":{"type":"MultiPolygon","coordinates":[[[[-115.1851925,36.0878725],[-115.1848339,36.087663],[-115.1844575,36.0875425],[-115.1844113,36.087531],[-115.1844078,36.0874707],[-115.1843297,36.0874765],[-115.1843723,36.0863545],[-115.1845924,36.0863058],[-115.1846989,36.0862828],[-115.1853345,36.0863258],[-115.1853523,36.0877634],[-115.1852564,36.087772],[-115.1852102,36.0877893],[-115.1851925,36.0878725]]]]},"properties":{"name":"Lot J"}},{"type":"Feature","geometry":{"type":"MultiPolygon","coordinates":[[[[-115.1828991,36.0893739],[-115.1824655,36.0895934],[-115.1821107,36.0898482],[-115.1819969,36.0900146],[-115.181791,36.0899261],[-115.1816377,36.0898978],[-115.181607,36.0898624],[-115.1816859,36.0893244],[-115.1817735,36.089158],[-115.1818348,36.0889456],[-115.1819005,36.0887899],[-115.181975,36.0887828],[-115.1821808,36.0888394],[-115.1823035,36.0888359],[-115.1824524,36.0888076],[-115.1825268,36.0887757],[-115.1828466,36.0886129],[-115.1828991,36.0893739]]]]},"properties":{"name":"Lot E"}},{"type":"Feature","geometry":{"type":"MultiPolygon","coordinates":[[[[-115.183907,36.0876982],[-115.1837207,36.0881391],[-115.1836237,36.0882769],[-115.1834505,36.088366],[-115.1833561,36.0883872],[-115.1831226,36.0884126],[-115.1830124,36.0884084],[-115.1829075,36.0884168],[-115.1827448,36.0884444],[-115.1826163,36.0885144],[-115.1824484,36.0885928],[-115.1823618,36.0886225],[-115.1821939,36.0886416],[-115.1820837,36.088631],[-115.1821152,36.0885483],[-115.1820339,36.0885228],[-115.1827579,36.0874416],[-115.182897,36.0874607],[-115.1829704,36.0874586],[-115.1831069,36.0874522],[-115.1831672,36.0874501],[-115.1835555,36.0875264],[-115.183907,36.0876261],[-115.183907,36.0876261],[-115.183907,36.0876261],[-115.183907,36.0876982]]]]},"properties":{"name":"Lots F&G"}},{"type":"Feature","geometry":{"type":"MultiPolygon","coordinates":[[[[-115.1839102,36.0874756],[-115.1830907,36.0873013],[-115.1830225,36.086398],[-115.1840648,36.0863603],[-115.1841187,36.0871038],[-115.1839857,36.087432],[-115.1839102,36.0874756]]]]},"properties":{"name":"Lot H"}},{"type":"Feature","geometry":{"type":"MultiPolygon","coordinates":[[[[-115.1933668,36.0898795],[-115.1933754,36.0890614],[-115.192218,36.089066],[-115.1922038,36.0898703],[-115.1933668,36.0898795]]]]},"properties":{"name":"Lot Z"}},{"type":"Feature","geometry":{"type":"MultiPolygon","coordinates":[[[[-115.1836787,36.083265],[-115.1829906,36.083378],[-115.182134,36.0835273],[-115.1820077,36.0833328],[-115.1817141,36.0827744],[-115.1817714,36.0826466],[-115.1818208,36.0825922],[-115.1836653,36.082629],[-115.1836787,36.083265]]]]},"properties":{"name":"Residence Inn"}},{"type":"Feature","geometry":{"type":"MultiPolygon","coordinates":[[[[-115.1836749,36.0840709],[-115.1824454,36.0842678],[-115.1821445,36.0836006],[-115.1821863,36.08359],[-115.1821731,36.0835439],[-115.183664,36.0832901],[-115.1836749,36.0840709]]]]},"properties":{"name":"Courtyard Inn"}},{"type":"Feature","geometry":{"type":"MultiPolygon","coordinates":[[[[-115.1838853,36.0849284],[-115.1827501,36.0851254],[-115.182491,36.0842878],[-115.1836569,36.0840891],[-115.1836569,36.0840891],[-115.1838853,36.0849284]]]]},"properties":{"name":"Fairfield Inn & Suites"}},{"type":"Feature","geometry":{"type":"MultiPolygon","coordinates":[[[[-115.1841049,36.0857473],[-115.1828685,36.0856768],[-115.1827361,36.085176],[-115.1839003,36.0849547],[-115.184138,36.0854118],[-115.1841771,36.0856719],[-115.1841049,36.0856816],[-115.1841049,36.0857473]]]]},"properties":{"name":"Staybridge Suites"}},{"type":"Feature","geometry":{"type":"MultiPolygon","coordinates":[[[[-115.1854708,36.0850917],[-115.1854589,36.0845009],[-115.1842137,36.0845105],[-115.1841067,36.0845489],[-115.1843118,36.0852286],[-115.1852598,36.085255],[-115.1852538,36.0850941],[-115.1854708,36.0850917]]]]},"properties":{"name":"Holiday Inn Express"}},{"type":"Feature","geometry":{"type":"MultiPolygon","coordinates":[[[[-115.1847546,36.0843369],[-115.1847506,36.083222],[-115.1839059,36.0832187],[-115.1838858,36.0838884],[-115.1839421,36.0843077],[-115.1839944,36.0843695],[-115.1842639,36.0843304],[-115.1847546,36.0843369]]]]},"properties":{"name":"South Rideshare"}},{"type":"Feature","geometry":{"type":"MultiPolygon","coordinates":[[[[-115.18359,36.0925656],[-115.1835792,36.0922974],[-115.1836826,36.0922608],[-115.1838292,36.0922051],[-115.1843767,36.0919131],[-115.1845987,36.0917058],[-115.1848138,36.0914657],[-115.1848697,36.09134],[-115.1850498,36.0909575],[-115.1851058,36.0908008],[-115.1851492,36.0905723],[-115.1852165,36.0905123],[-115.1853753,36.0905081],[-115.1853611,36.0920394],[-115.1852652,36.0920356],[-115.1852652,36.0920942],[-115.1849869,36.0921302],[-115.1846266,36.0922379],[-115.184126,36.0925063],[-115.184105,36.0924893],[-115.1838243,36.0925611],[-115.18359,36.0925656]]]]},"properties":{"name":"Lot A"}}]}
